{"type": "FeatureCollection", "features": [ {"type": "Feature", "properties": {"norad_id": 41836, "name": "HIMAWARI-9", "group": "weather", "lat": 0.03710586011580489, "lon": 90.4920802850124, "alt_km": 35794.79861971709, "timestamp": "2025-12-03T15:48:02.748289+00:00", "meta": {"OBJECT_NAME": "HIMAWARI-9", "OBJECT_ID": "2016-064A", "EPOCH": "2025-12-02T23:00:58.348224", "MEAN_MOTION": 1.0027266, "ECCENTRICITY": 0.00024178, "INCLINATION": 0.0194, "RA_OF_ASC_NODE": 335.8786, "ARG_OF_PERICENTER": 323.9867, "MEAN_ANOMALY": 258.1785, "EPHEMERIS_TYPE": 0, "CLASSIFICATION_TYPE": "U", "NORAD_CAT_ID": 41836, "ELEMENT_SET_NO": 999, "REV_AT_EPOCH": 3324, "BSTAR": 0, "MEAN_MOTION_DOT": 0, "MEAN_MOTION_DDOT": 0}, "tle": {"line1": "1 41836U 16064A   25336.95900866  .00000000  00000+0  00000+0 0  9999", "line2": "2 41836   0.0194 335.8786 0002417 323.9867 258.1785  1.00272660 33242"}}, "geometry": {"type": "Point", "coordinates": [90.4920802850124, 0.03710586011580489]}}, {"type": "Feature", "properties": {"norad_id": 41866, "name": "GOES 16", "group": "weather", "lat": 0.023398619595736605, "lon": -154.97152120817043, "alt_km": 35777.424828153235, "timestamp": "2025-12-03T15:48:02.748300+00:00", "meta": {"OBJECT_NAME": "GOES 16", "OBJECT_ID": "2016-071A", "EPOCH": "2025-12-03T07:03:00.652320", "MEAN_MOTION": 1.0027058, "ECCENTRICITY": 0.00034219, "INCLINATION": 0.0587, "RA_OF_ASC_NODE": 106.7551, "ARG_OF_PERICENTER": 150.0102, "MEAN_ANOMALY": 176.7022, "EPHEMERIS_TYPE": 0, "CLASSIFICATION_TYPE": "U", "NORAD_CAT_ID": 41866, "ELEMENT_SET_NO": 999, "REV_AT_EPOCH": 3313, "BSTAR": 0, "MEAN_MOTION_DOT": -7.2e-07, "MEAN_MOTION_DDOT": 0}, "tle": {"line1": "1 41866U 16071A   25337.29375755 -.00000072  00000+0  00000+0 0  9991", "line2": "2 41866   0.0587 106.7551 0003421 150.0102 176.7022  1.00270580 33139"}}, "geometry": {"type": "Point", "coordinates": [-154.97152120817043, 0.023398619595736605]}}, {"type": "Feature", "properties": {"norad_id": 41882, "name": "FENGYUN 4A", "group": "weather", "lat": -0.26184702594189024, "lon": 73.44214952163962, "alt_km": 35802.98949223531, "timestamp": "2025-12-03T15:48:02.748311+00:00", "meta": {"OBJECT_NAME": "FENGYUN 4A", "OBJECT_ID": "2016-077A", "EPOCH": "2025-12-03T07:29:41.704800", "MEAN_MOTION": 1.00278256, "ECCENTRICITY": 0.00050291, "INCLINATION": 1.8234, "RA_OF_ASC_NODE": 82.4825, "ARG_OF_PERICENTER": 141.8258, "MEAN_ANOMALY": 84.2433, "EPHEMERIS_TYPE": 0, "CLASSIFICATION_TYPE": "U", "NORAD_CAT_ID": 41882, "ELEMENT_SET_NO": 999, "REV_AT_EPOCH": 3296, "BSTAR": 0, "MEAN_MOTION_DOT": -3.38e-06, "MEAN_MOTION_DDOT": 0}, "tle": {"line1": "1 41882U 16077A   25337.31228825 -.00000338  00000+0  00000+0 0  9998", "line2": "2 41882   1.8234  82.4825 0005029 141.8258  84.2433  1.00278256 32962"}}, "geometry": {"type": "Point", "coordinates": [73.44214952163962, -0.26184702594189024]}}, {"type": "Feature", "properties": {"norad_id": 41884, "name": "CYGFM05", "group": "weather", "lat": 34.92435654315482, "lon": -165.44963545716044, "alt_km": 412.38674882358737, "timestamp": "2025-12-03T15:48:02.748321+00:00", "meta": {"OBJECT_NAME": "CYGFM05", "OBJECT_ID": "2016-078A", "EPOCH": "2025-12-03T01:28:58.083168", "MEAN_MOTION": 15.47083635, "ECCENTRICITY": 0.000941, "INCLINATION": 34.958, "RA_OF_ASC_NODE": 110.3228, "ARG_OF_PERICENTER": 90.273, "MEAN_ANOMALY": 269.907, "EPHEMERIS_TYPE": 0, "CLASSIFICATION_TYPE": "U", "NORAD_CAT_ID": 41884, "ELEMENT_SET_NO": 999, "REV_AT_EPOCH": 49826, "BSTAR": 0.00049127619, "MEAN_MOTION_DOT": 0.00025714, "MEAN_MOTION_DDOT": 0}, "tle": {"line1": "1 41884U 16078A   25337.06178337  .00025714  00000+0  49128-3 0  9997", "line2": "2 41884  34.9580 110.3228 0009410  90.2730 269.9070 15.47083635498262"}}, "geometry": {"type": "Point", "coordinates": [-165.44963545716044, 34.92435654315482]}}, {"type": "Feature", "properties": {"norad_id": 41885, "name": "CYGFM04", "group": "weather", "lat": -29.58294211882097, "lon": -44.11649846576593, "alt_km": 421.35405779219946, "timestamp": "2025-12-03T15:48:02.748330+00:00", "meta": {"OBJECT_NAME": "CYGFM04", "OBJECT_ID": "2016-078B", "EPOCH": "2025-12-03T08:35:20.674752", "MEAN_MOTION": 15.49770286, "ECCENTRICITY": 0.0008453, "INCLINATION": 34.9343, "RA_OF_ASC_NODE": 83.4335, "ARG_OF_PERICENTER": 123.3157, "MEAN_ANOMALY": 236.8375, "EPHEMERIS_TYPE": 0, "CLASSIFICATION_TYPE": "U", "NORAD_CAT_ID": 41885, "ELEMENT_SET_NO": 999, "REV_AT_EPOCH": 49848, "BSTAR": 0.0010276258, "MEAN_MOTION_DOT": 0.00059404, "MEAN_MOTION_DDOT": 0}, "tle": {"line1": "1 41885U 16078B   25337.35787818  .00059404  00000+0  10276-2 0  9994", "line2": "2 41885  34.9343  83.4335 0008453 123.3157 236.8375 15.49770286498488"}}, "geometry": {"type": "Point", "coordinates": [-44.11649846576593, -29.58294211882097]}}, {"type": "Feature", "properties": {"norad_id": 41886, "name": "CYGFM02", "group": "weather", "lat": -15.612397381960342, "lon": -76.50233728274844, "alt_km": 413.2097279318705, "timestamp": "2025-12-03T15:48:02.748340+00:00", "meta": {"OBJECT_NAME": "CYGFM02", "OBJECT_ID": "2016-078C", "EPOCH": "2025-12-03T08:43:51.389472", "MEAN_MOTION": 15.51096101, "ECCENTRICITY": 0.00102202, "INCLINATION": 34.943, "RA_OF_ASC_NODE": 81.8409, "ARG_OF_PERICENTER": 122.8102, "MEAN_ANOMALY": 237.3606, "EPHEMERIS_TYPE": 0, "CLASSIFICATION_TYPE": "U", "NORAD_CAT_ID": 41886, "ELEMENT_SET_NO": 999, "REV_AT_EPOCH": 49861, "BSTAR": 0.00050655227, "MEAN_MOTION_DOT": 0.00030584, "MEAN_MOTION_DDOT": 0}, "tle": {"line1": "1 41886U 16078C   25337.36378923  .00030584  00000+0  50655-3 0  9993", "line2": "2 41886  34.9430  81.8409 0010220 122.8102 237.3606 15.51096101498617"}}, "geometry": {"type": "Point", "coordinates": [-76.50233728274844, -15.612397381960342]}}, {"type": "Feature", "properties": {"norad_id": 41887, "name": "CYGFM01", "group": "weather", "lat": 31.544851616686387, "lon": -132.71097639572443, "alt_km": 412.14069323887816, "timestamp": "2025-12-03T15:48:02.748350+00:00", "meta": {"OBJECT_NAME": "CYGFM01", "OBJECT_ID": "2016-078D", "EPOCH": "2025-12-02T19:11:10.478976", "MEAN_MOTION": 15.47633981, "ECCENTRICITY": 0.00090758, "INCLINATION": 34.9409, "RA_OF_ASC_NODE": 114.4547, "ARG_OF_PERICENTER": 78.5446, "MEAN_ANOMALY": 281.6294, "EPHEMERIS_TYPE": 0, "CLASSIFICATION_TYPE": "U", "NORAD_CAT_ID": 41887, "ELEMENT_SET_NO": 999, "REV_AT_EPOCH": 49816, "BSTAR": 0.00047955707, "MEAN_MOTION_DOT": 0.00025583, "MEAN_MOTION_DDOT": 0}, "tle": {"line1": "1 41887U 16078D   25336.79942684  .00025583  00000+0  47956-3 0  9994", "line2": "2 41887  34.9409 114.4547 0009075  78.5446 281.6294 15.47633981498167"}}, "geometry": {"type": "Point", "coordinates": [-132.71097639572443, 31.544851616686387]}}, {"type": "Feature", "properties": {"norad_id": 41888, "name": "CYGFM08", "group": "weather", "lat": 28.614324856416033, "lon": -139.43955912016222, "alt_km": 407.53115612940564, "timestamp": "2025-12-03T15:48:02.748359+00:00", "meta": {"OBJECT_NAME": "CYGFM08", "OBJECT_ID": "2016-078E", "EPOCH": "2025-12-02T17:36:54.315072", "MEAN_MOTION": 15.48804218, "ECCENTRICITY": 0.00106484, "INCLINATION": 34.9446, "RA_OF_ASC_NODE": 97.9884, "ARG_OF_PERICENTER": 104.4395, "MEAN_ANOMALY": 255.7509, "EPHEMERIS_TYPE": 0, "CLASSIFICATION_TYPE": "U", "NORAD_CAT_ID": 41888, "ELEMENT_SET_NO": 999, "REV_AT_EPOCH": 49838, "BSTAR": 0.00048806063, "MEAN_MOTION_DOT": 0.00027152, "MEAN_MOTION_DDOT": 0}, "tle": {"line1": "1 41888U 16078E   25336.73396198  .00027152  00000+0  48806-3 0  9991", "line2": "2 41888  34.9446  97.9884 0010648 104.4395 255.7509 15.48804218498387"}}, "geometry": {"type": "Point", "coordinates": [-139.43955912016222, 28.614324856416033]}}, {"type": "Feature", "properties": {"norad_id": 41890, "name": "CYGFM07", "group": "weather", "lat": 34.90533845715666, "lon": 173.31043714139312, "alt_km": 407.28583998782597, "timestamp": "2025-12-03T15:48:02.748369+00:00", "meta": {"OBJECT_NAME": "CYGFM07", "OBJECT_ID": "2016-078G", "EPOCH": "2025-12-03T07:40:28.276608", "MEAN_MOTION": 15.49406844, "ECCENTRICITY": 0.00089722, "INCLINATION": 34.947, "RA_OF_ASC_NODE": 83.1879, "ARG_OF_PERICENTER": 128.6712, "MEAN_ANOMALY": 231.4814, "EPHEMERIS_TYPE": 0, "CLASSIFICATION_TYPE": "U", "NORAD_CAT_ID": 41890, "ELEMENT_SET_NO": 999, "REV_AT_EPOCH": 49849, "BSTAR": 0.00049421872, "MEAN_MOTION_DOT": 0.00028072, "MEAN_MOTION_DDOT": 0}, "tle": {"line1": "1 41890U 16078G   25337.31977172  .00028072  00000+0  49422-3 0  9993", "line2": "2 41890  34.9470  83.1879 0008972 128.6712 231.4814 15.49406844498492"}}, "geometry": {"type": "Point", "coordinates": [173.31043714139312, 34.90533845715666]}}, {"type": "Feature", "properties": {"norad_id": 41891, "name": "CYGFM03", "group": "weather", "lat": -32.566739196252115, "lon": 16.7075374947319, "alt_km": 426.23405471020214, "timestamp": "2025-12-03T15:48:02.748378+00:00", "meta": {"OBJECT_NAME": "CYGFM03", "OBJECT_ID": "2016-078H", "EPOCH": "2025-12-03T08:22:12.875232", "MEAN_MOTION": 15.49312546, "ECCENTRICITY": 0.00083129, "INCLINATION": 34.9424, "RA_OF_ASC_NODE": 84.9098, "ARG_OF_PERICENTER": 115.9482, "MEAN_ANOMALY": 244.2097, "EPHEMERIS_TYPE": 0, "CLASSIFICATION_TYPE": "U", "NORAD_CAT_ID": 41891, "ELEMENT_SET_NO": 999, "REV_AT_EPOCH": 49847, "BSTAR": 0.0005016209, "MEAN_MOTION_DOT": 0.00028393, "MEAN_MOTION_DDOT": 0}, "tle": {"line1": "1 41891U 16078H   25337.34876013  .00028393  00000+0  50162-3 0  9998", "line2": "2 41891  34.9424  84.9098 0008312 115.9482 244.2097 15.49312546498473"}}, "geometry": {"type": "Point", "coordinates": [16.7075374947319, -32.566739196252115]}}]}